[{"OBJECT_NAME":"STARLINK-35679","OBJECT_ID":"2025-257AE","EPOCH":"2026-03-09T16:28:22.959840","MEAN_MOTION":15.30194471,"ECCENTRICITY":8.862e-5,"INCLINATION":53.1584,"RA_OF_ASC_NODE":216.9791,"ARG_OF_PERICENTER":66.6156,"MEAN_ANOMALY":293.4938,"EPHEMERIS_TYPE":0,"CLASSIFICATION_TYPE":"U","NORAD_CAT_ID":66408,"ELEMENT_SET_NO":999,"REV_AT_EPOCH":1973,"BSTAR":0.0011385542,"MEAN_MOTION_DOT":0.00033508,"MEAN_MOTION_DDOT":0},{"OBJECT_NAME":"THORAD AGENA D DEB","OBJECT_ID":"1969-082CP","EPOCH":"2026-03-09T22:51:31.947840","MEAN_MOTION":15.31252047,"ECCENTRICITY":0.00108961,"INCLINATION":69.8927,"RA_OF_ASC_NODE":265.8646,"ARG_OF_PERICENTER":335.0972,"MEAN_ANOMALY":24.9676,"EPHEMERIS_TYPE":0,"CLASSIFICATION_TYPE":"U","NORAD_CAT_ID":4133,"ELEMENT_SET_NO":999,"REV_AT_EPOCH":97550,"BSTAR":0.0018489552,"MEAN_MOTION_DOT":0.00056347,"MEAN_MOTION_DDOT":0}]
